[{"OBJECT_NAME":"NANOSATC-BR1","OBJECT_ID":"2014-033Q","EPOCH":"2026-03-09T23:35:03.168384","MEAN_MOTION":15.28136801,"ECCENTRICITY":0.00046435,"INCLINATION":98.0845,"RA_OF_ASC_NODE":92.7804,"ARG_OF_PERICENTER":147.6715,"MEAN_ANOMALY":212.4808,"EPHEMERIS_TYPE":0,"CLASSIFICATION_TYPE":"U","NORAD_CAT_ID":40024,"ELEMENT_SET_NO":999,"REV_AT_EPOCH":63881,"BSTAR":0.00074295057,"MEAN_MOTION_DOT":0.00020336,"MEAN_MOTION_DDOT":0},{"OBJECT_NAME":"STARLINK-30155","OBJECT_ID":"2023-107U","EPOCH":"2026-03-09T04:18:15.875424","MEAN_MOTION":15.26734779,"ECCENTRICITY":0.00025937,"INCLINATION":43.0046,"RA_OF_ASC_NODE":338.5844,"ARG_OF_PERICENTER":269.8096,"MEAN_ANOMALY":90.2458,"EPHEMERIS_TYPE":0,"CLASSIFICATION_TYPE":"U","NORAD_CAT_ID":57475,"ELEMENT_SET_NO":999,"REV_AT_EPOCH":14507,"BSTAR":2.4290445e-5,"MEAN_MOTION_DOT":3.91e-6,"MEAN_MOTION_DDOT":0}]
